ONEWEB-0641             
1 55805U 23029K   23281.59316536  .00000020  00000+0  16688-4 0  9997
2 55805  87.9154 140.5617 0001919  70.1748 289.9592 13.19723330 29311
ONEWEB-0642             
1 55806U 23029L   23281.58842687  .00000048  00000+0  87745-4 0  9990
2 55806  87.9219 140.5392 0002505  52.9554 307.1807 13.19727158 29302
ONEWEB-0643             
1 55807U 23029M   23281.54096294  .00000040  00000+0  72797-4 0  9995
2 55807  87.8968 125.3337 0002112  43.6097 316.5200 13.14497101 30294
ONEWEB-0644             
1 55808U 23029N   23281.58370548  .00000057  00000+0  10951-3 0  9998
2 55808  87.9147 140.5496 0002113  60.1012 300.0331 13.19725005 29307
ONEWEB-0645             
1 55809U 23029P   23281.57973592  .00000047  00000+0  85135-4 0  9992
2 55809  87.9218 140.5365 0002313  71.8262 288.3122 13.19722277 29304
ONEWEB-0646             
1 55810U 23029Q   23281.53394636  .00000011  00000+0 -47405-5 0  9997
2 55810  87.9220 140.5488 0001763  67.3458 292.7861 13.19725446 29287
ONEWEB-0648             
1 55811U 23029R   23281.57899342  .00000039  00000+0  71347-4 0  9996
2 55811  87.8970 125.2910 0002719  62.0145 298.1260 13.14506300 30305
ONEWEB-0649             
1 55812U 23029S   23281.57264306  .00000110  00000+0  24356-3 0  9990
2 55812  87.9222 140.5408 0002195  68.2601 291.8765 13.19723243 29324
